GLOBALSTAR M075         
1 37192U 10054E   25162.14028573 -.00000073  00000+0  17292-3 0  9992
2 37192  51.9924 199.9490 0000184 136.3330 259.9943 12.62265803675618
GLOBALSTAR M073         
1 37193U 10054F   25162.84909293 -.00000128  00000+0 -13269-3 0  9999
2 37193  52.0050 111.6037 0000483  20.1622 358.3451 12.62271981677169
GLOBALSTAR M083         
1 37739U 11033A   25162.87493066 -.00000099  00000+0  24800-4 0  9992
2 37739  51.9871  60.2646 0000535  71.0486   4.4003 12.62263797646186
GLOBALSTAR M088         
1 37740U 11033B   25162.94797862 -.00000100  00000+0  19446-4 0  9996
2 37740  52.0063 325.5855 0000897 110.7208  57.4507 12.62265432641737
GLOBALSTAR M091         
1 37741U 11033C   25162.79992628 -.00000091  00000+0  68678-4 0  9997
2 37741  52.0007 289.5349 0000770 141.3487  13.8891 12.62268547642500
GLOBALSTAR M085         
1 37742U 11033D   25162.71007957 -.00000066  00000+0  21035-3 0  9999
2 37742  51.9859 240.8514 0000533 164.8417   2.3695 12.62269215643002
GLOBALSTAR M081         
1 37743U 11033E   25162.40047462 -.00000074  00000+0  16420-3 0  9992
2 37743  51.9952 244.5794 0000357 166.5781 271.8374 12.62266345643496
GLOBALSTAR M089         
1 37744U 11033F   25161.82675630 -.00000070  00000+0  18790-3 0  9990
2 37744  51.9907 200.5533 0000224  61.7672 109.7056 12.62264683643880
